NORAD_CAT_ID,OBJECT_NAME,OBJECT_TYPE,EPOCH,MEAN_MOTION,ECCENTRICITY,INCLINATION,RA_OF_ASC_NODE,ARG_OF_PERICENTER,MEAN_ANOMALY,BSTAR,MEAN_MOTION_DOT,MEAN_MOTION_DDOT,TLE_LINE0,TLE_LINE1,TLE_LINE2,SEMIMAJOR_AXIS,PERIOD,APOGEE,PERIGEE,DECAYED
52114.0,STARLINK-3737,PAYLOAD,2023-07-03 15:55:16,15.08844843,0.000122,53.2167,158.6259,65.8105,294.3014,0.00013924,1.929e-05,0.0,0 STARLINK-3737,1 52114U 22029AC  23184.66339088  .00001929  00000-0  13924-3 0  9992,2 52114  53.2167 158.6259 0001220  65.8105 294.3014 15.08844843 72844,6917.866,95.437,540.575,538.887,0.0
52114.0,STARLINK-3737,PAYLOAD,2023-07-05 01:18:22,15.08844322,0.0001322,53.2164,152.3805,72.8525,287.2611,-2.5687e-05,-6.97e-06,0.0,0 STARLINK-3737,1 52114U 22029AC  23186.05443036 -.00000697  00000-0 -25687-4 0  9999,2 52114  53.2164 152.3805 0001322  72.8525 287.2611 15.08844322 73056,6917.867,95.437,540.647,538.818,0.0
52114.0,STARLINK-3737,PAYLOAD,2023-07-06 04:19:56,15.08842763,0.0001252,53.2164,147.3264,74.5517,285.5613,-4.5982e-05,-1.02e-05,0.0,0 STARLINK-3737,1 52114U 22029AC  23187.18050940 -.00001020  00000-0 -45982-4 0  9993,2 52114  53.2164 147.3264 0001252  74.5517 285.5613 15.08842763 73220,6917.872,95.437,540.603,538.871,0.0
52114.0,STARLINK-3737,PAYLOAD,2023-07-07 13:43:01,15.08838985,0.000119,53.2167,141.0832,80.671,279.4417,1.1694e-05,-1.02e-06,0.0,0 STARLINK-3737,1 52114U 22029AC  23188.57154989 -.00000102  00000-0  11694-4 0  9997,2 52114  53.2167 141.0832 0001190  80.6710 279.4417 15.08838985 73437,6917.883,95.438,540.572,538.925,0.0
52114.0,STARLINK-3737,PAYLOAD,2023-07-09 02:16:54,15.08833714,0.0001206,53.2169,134.2434,84.5714,275.5416,-1.8228e-05,-5.78e-06,0.0,0 STARLINK-3737,1 52114U 22029AC  23190.09507883 -.00000578  00000-0 -18228-4 0  9990,2 52114  53.2169 134.2434 0001206  84.5714 275.5416 15.08833714 73662,6917.9,95.438,540.599,538.93,0.0
52114.0,STARLINK-3737,PAYLOAD,2023-07-10 03:43:04,15.08841256,0.0001175,53.217,129.485,92.5035,267.6092,4.6007e-05,4.44e-06,0.0,0 STARLINK-3737,1 52114U 22029AC  23191.15491492  .00000444  00000-0  46007-4 0  9992,2 52114  53.2170 129.4850 0001175  92.5035 267.6092 15.08841256 73822,6917.877,95.437,540.554,538.929,0.0
52114.0,STARLINK-3737,PAYLOAD,2023-07-11 05:09:13,15.08852301,0.0001116,53.2171,124.7269,89.5594,270.5526,0.00018,2.579e-05,0.0,0 STARLINK-3737,1 52114U 22029AC  23192.21474327  .00002579  00000-0  18000-3 0  9990,2 52114  53.2171 124.7269 0001116  89.5594 270.5526 15.08852301 73981,6917.843,95.437,540.48,538.936,0.0
52114.0,STARLINK-3737,PAYLOAD,2023-07-11 19:27:43,15.0884188,9.45e-05,53.2175,122.0518,75.4385,284.6712,5.4511e-06,-2.01e-06,0.0,0 STARLINK-3737,1 52114U 22029AC  23192.81091503 -.00000201  00000-0  54511-5 0  9997,2 52114  53.2175 122.0518 0000945  75.4385 284.6712 15.08841880 74078,6917.875,95.437,540.393,539.086,0.0
52114.0,STARLINK-3737,PAYLOAD,2023-07-13 01:40:02,15.08842903,0.0001148,53.2178,116.4003,85.2625,274.8499,-6.7671e-05,-1.365e-05,0.0,0 STARLINK-3737,1 52114U 22029AC  23194.06947566 -.00001365  00000-0 -67671-4 0  9998,2 52114  53.2178 116.4003 0001148  85.2625 274.8499 15.08842903 74260,6917.872,95.437,540.531,538.942,0.0
52114.0,STARLINK-3737,PAYLOAD,2023-07-14 19:00:04,15.08835565,0.0001253,53.2176,108.6711,95.9375,264.176,7.5157e-05,9.08e-06,0.0,0 STARLINK-3737,1 52114U 22029AC  23195.79171988  .00000908  00000-0  75157-4 0  9994,2 52114  53.2176 108.6711 0001253  95.9375 264.1760 15.08835565 74522,6917.894,95.438,540.626,538.892,0.0
52114.0,STARLINK-3737,PAYLOAD,2023-07-15 01:21:36,15.08845591,9.76e-05,53.2179,107.4805,80.8105,279.2998,0.00015418,2.167e-05,0.0,0 STARLINK-3737,1 52114U 22029AC  23196.05667212  .00002167  00000-0  15418-3 0  9996,2 52114  53.2179 107.4805 0000976  80.8105 279.2998 15.08845591 74565,6917.863,95.437,540.403,539.053,0.0
52114.0,STARLINK-3737,PAYLOAD,2023-07-15 17:15:28,15.08839479,0.0001191,53.2191,104.5109,105.9805,254.1318,4.5374e-05,4.34e-06,0.0,0 STARLINK-3737,1 52114U 22029AC  23196.71907991  .00000434  00000-0  45374-4 0  9990,2 52114  53.2191 104.5109 0001191 105.9805 254.1318 15.08839479 74667,6917.882,95.438,540.571,538.923,0.0
52114.0,STARLINK-3737,PAYLOAD,2023-07-16 02:47:47,15.08834721,9.08e-05,53.2172,102.724,87.0962,273.0134,-4.6673e-06,-3.62e-06,0.0,0 STARLINK-3737,1 52114U 22029AC  23197.11652573 -.00000362  00000-0 -46673-5 0  9994,2 52114  53.2172 102.7240 0000908  87.0962 273.0134 15.08834721 74729,6917.897,95.438,540.39,539.133,0.0
52114.0,STARLINK-3737,PAYLOAD,2023-07-16 10:44:44,15.0881322,9.3e-05,53.2173,101.2368,91.4531,268.6568,0.000105,1.383e-05,0.0,0 STARLINK-3737,1 52114U 22029AC  23197.44773894  .00001383  00000-0  10500-3 0  9990,2 52114  53.2173 101.2368 0000930  91.4531 268.6568 15.08813220 74778,6917.962,95.439,540.471,539.184,0.0
52114.0,STARLINK-3737,PAYLOAD,2023-07-16 21:52:26,15.08839598,0.0001001,53.2172,99.1549,99.6855,260.425,-0.00015443,-2.745e-05,0.0,0 STARLINK-3737,1 52114U 22029AC  23197.91141252 -.00002745  00000-0 -15443-3 0  9995,2 52114  53.2172  99.1549 0001001  99.6855 260.4250 15.08839598 74844,6917.882,95.438,540.439,539.054,0.0
52114.0,STARLINK-3737,PAYLOAD,2023-07-17 23:18:34,15.0885473,8.96e-05,53.2176,94.3967,79.2498,280.8595,0.00022893,3.359e-05,0.0,0 STARLINK-3737,1 52114U 22029AC  23198.97122999  .00003359  00000-0  22893-3 0  9996,2 52114  53.2176  94.3967 0000896  79.2498 280.8595 15.08854730 75009,6917.835,95.437,540.32,539.081,0.0
52114.0,STARLINK-3737,PAYLOAD,2023-07-18 23:09:22,15.08844004,9.7e-05,53.2184,89.937,78.8794,281.2307,7.719e-05,9.41e-06,0.0,0 STARLINK-3737,1 52114U 22029AC  23199.96484179  .00000941  00000-0  77190-4 0  9992,2 52114  53.2184  89.9370 0000970  78.8794 281.2307 15.08844004 75158,6917.868,95.437,540.404,539.062,0.0
52114.0,STARLINK-3737,PAYLOAD,2023-07-20 14:54:01,15.08829833,7.13e-05,53.2174,82.502,118.0137,242.0927,0.00011125,1.483e-05,0.0,0 STARLINK-3737,1 52114U 22029AC  23201.62084557  .00001483  00000-0  11125-3 0  9992,2 52114  53.2174  82.5020 0000713 118.0137 242.0927 15.08829833 75405,6917.911,95.438,540.27,539.283,0.0
52114.0,STARLINK-3737,PAYLOAD,2023-07-21 02:01:42,15.08841812,7.53e-05,53.2178,80.4201,104.569,255.5386,0.00018834,2.711e-05,0.0,0 STARLINK-3737,1 52114U 22029AC  23202.08451830  .00002711  00000-0  18834-3 0  9994,2 52114  53.2178  80.4201 0000753 104.5690 255.5386 15.08841812 75471,6917.875,95.437,540.261,539.219,0.0
52114.0,STARLINK-3737,PAYLOAD,2023-07-21 17:55:34,15.08834547,9.59e-05,53.2168,77.4457,130.0814,230.0263,4.8225e-05,4.8e-06,0.0,0 STARLINK-3737,1 52114U 22029AC  23202.74692912  .00000480  00000-0  48225-4 0  9994,2 52114  53.2168  77.4457 0000959 130.0814 230.0263 15.08834547 75579,6917.897,95.438,540.425,539.099,0.0
52114.0,STARLINK-3737,PAYLOAD,2023-07-24 14:17:09,15.0884311,7.48e-05,53.2183,64.6598,85.2142,274.8935,7.3436e-05,8.81e-06,0.0,0 STARLINK-3737,1 52114U 22029AC  23205.59525090  .00000881  00000-0  73436-4 0  9999,2 52114  53.2183  64.6598 0000748  85.2142 274.8935 15.08843110 75995,6917.871,95.437,540.253,539.218,0.0
52114.0,STARLINK-3737,PAYLOAD,2023-07-24 23:49:27,15.08849659,8.61e-05,53.2181,62.8762,79.8857,280.2233,0.00013351,1.838e-05,0.0,0 STARLINK-3737,1 52114U 22029AC  23205.99268517  .00001838  00000-0  13351-3 0  9993,2 52114  53.2181  62.8762 0000861  79.8857 280.2233 15.08849659 76058,6917.851,95.437,540.311,539.12,0.0
52114.0,STARLINK-3737,PAYLOAD,2023-07-25 23:40:15,15.08838879,9.95e-05,53.2182,58.416,79.9241,280.1863,5.2382e-05,5.46e-06,0.0,0 STARLINK-3737,1 52114U 22029AC  23206.98629510  .00000546  00000-0  52382-4 0  9990,2 52114  53.2182  58.4160 0000995  79.9241 280.1863 15.08838879 76205,6917.884,95.438,540.437,539.06,0.0
52114.0,STARLINK-3737,PAYLOAD,2023-07-26 17:09:29,15.08849003,8.79e-05,53.2185,55.1441,104.0442,256.0648,2.4385e-05,1e-06,0.0,0 STARLINK-3737,1 52114U 22029AC  23207.71492709  .00000100  00000-0  24385-4 0  9998,2 52114  53.2185  55.1441 0000879 104.0442 256.0648 15.08849003 76325,6917.853,95.437,540.326,539.11,0.0
52114.0,STARLINK-3737,PAYLOAD,2023-07-26 20:20:15,15.08851769,9.17e-05,53.2184,54.5492,108.4921,251.6171,2.2732e-05,7.4e-07,0.0,0 STARLINK-3737,1 52114U 22029AC  23207.84740439  .00000074  00000-0  22732-4 0  9992,2 52114  53.2184  54.5492 0000917 108.4921 251.6171 15.08851769 76331,6917.844,95.437,540.344,539.075,0.0
52114.0,STARLINK-3737,PAYLOAD,2023-07-26 23:31:01,15.08857479,7.6e-05,53.2175,53.9546,94.601,265.5069,0.00010176,1.333e-05,0.0,0 STARLINK-3737,1 52114U 22029AC  23207.97987780  .00001333  00000-0  10176-3 0  9995,2 52114  53.2175  53.9546 0000760  94.6010 265.5069 15.08857479 76362,6917.827,95.436,540.218,539.166,0.0
52114.0,STARLINK-3737,PAYLOAD,2023-07-27 09:03:21,15.08838203,0.0001155,53.2152,52.1726,82.525,277.5873,6.267e-05,7.1e-06,0.0,0 STARLINK-3737,1 52114U 22029AC  23208.37733220  .00000710  00000-0  62670-4 0  9993,2 52114  53.2152  52.1726 0001155  82.5250 277.5873 15.08838203 76426,6917.886,95.438,540.55,538.952,0.0
52114.0,STARLINK-3737,PAYLOAD,2023-07-27 13:49:31,15.08825643,3.7e-05,53.2182,51.2783,22.1418,337.9591,-0.0001581,-2.802e-05,0.0,0 STARLINK-3737,1 52114U 22029AC  23208.57605856 -.00002802  00000-0 -15810-3 0  9997,2 52114  53.2182  51.2783 0000370  22.1418 337.9591 15.08825643 76440,6917.924,95.438,540.045,539.533,0.0
52114.0,STARLINK-3737,PAYLOAD,2023-07-27 15:24:54,15.08831176,7.33e-05,53.2186,50.9852,53.9003,306.2057,-7.2056e-05,-1.434e-05,0.0,0 STARLINK-3737,1 52114U 22029AC  23208.64230172 -.00001434  00000-0 -72056-4 0  9996,2 52114  53.2186  50.9852 0000733  53.9003 306.2057 15.08831176 76468,6917.907,95.438,540.279,539.265,0.0
52114.0,STARLINK-3737,PAYLOAD,2023-07-27 20:11:04,15.08832692,6.6e-05,53.2182,50.0913,68.2785,291.8277,-4.9171e-05,-1.07e-05,0.0,0 STARLINK-3737,1 52114U 22029AC  23208.84102051 -.00001070  00000-0 -49171-4 0  9990,2 52114  53.2182  50.0913 0000660  68.2785 291.8277 15.08832692 76487,6917.903,95.438,540.224,539.311,0.0
